<?xml version="1.0" encoding="UTF-8"?>
<ndm xmlns:xsi="http://www.w3.org/2001/XMLSchema-instance" xsi:noNamespaceSchemaLocation="https://sanaregistry.org/r/ndmxml_unqualified/ndmxml-2.0.0-master-2.0.xsd">
<omm id="CCSDS_OMM_VERS" version="2.0">
<header><CREATION_DATE/><ORIGINATOR/></header><body><segment><metadata><OBJECT_NAME>ORBCOMM FM103 [+]</OBJECT_NAME><OBJECT_ID>2014-040F</OBJECT_ID><CENTER_NAME>EARTH</CENTER_NAME><REF_FRAME>TEME</REF_FRAME><TIME_SYSTEM>UTC</TIME_SYSTEM><MEAN_ELEMENT_THEORY>SGP4</MEAN_ELEMENT_THEORY></metadata><data><meanElements><EPOCH>2024-01-05T07:59:58.672608</EPOCH><MEAN_MOTION>14.56183808</MEAN_MOTION><ECCENTRICITY>.0002231</ECCENTRICITY><INCLINATION>47.0076</INCLINATION><RA_OF_ASC_NODE>351.3660</RA_OF_ASC_NODE><ARG_OF_PERICENTER>350.1347</ARG_OF_PERICENTER><MEAN_ANOMALY>9.9494</MEAN_ANOMALY></meanElements><tleParameters><EPHEMERIS_TYPE>0</EPHEMERIS_TYPE><CLASSIFICATION_TYPE>U</CLASSIFICATION_TYPE><NORAD_CAT_ID>40091</NORAD_CAT_ID><ELEMENT_SET_NO>999</ELEMENT_SET_NO><REV_AT_EPOCH>48697</REV_AT_EPOCH><BSTAR>.20278E-3</BSTAR><MEAN_MOTION_DOT>.737E-5</MEAN_MOTION_DOT><MEAN_MOTION_DDOT>0</MEAN_MOTION_DDOT></tleParameters></data></segment></body></omm>
<omm id="CCSDS_OMM_VERS" version="2.0">
<header><CREATION_DATE/><ORIGINATOR/></header><body><segment><metadata><OBJECT_NAME>ORBCOMM FM114 [+]</OBJECT_NAME><OBJECT_ID>2015-081A</OBJECT_ID><CENTER_NAME>EARTH</CENTER_NAME><REF_FRAME>TEME</REF_FRAME><TIME_SYSTEM>UTC</TIME_SYSTEM><MEAN_ELEMENT_THEORY>SGP4</MEAN_ELEMENT_THEORY></metadata><data><meanElements><EPOCH>2024-01-05T02:14:14.873280</EPOCH><MEAN_MOTION>14.56220640</MEAN_MOTION><ECCENTRICITY>.0001438</ECCENTRICITY><INCLINATION>47.0027</INCLINATION><RA_OF_ASC_NODE>261.8211</RA_OF_ASC_NODE><ARG_OF_PERICENTER>63.7945</ARG_OF_PERICENTER><MEAN_ANOMALY>296.3088</MEAN_ANOMALY></meanElements><tleParameters><EPHEMERIS_TYPE>0</EPHEMERIS_TYPE><CLASSIFICATION_TYPE>U</CLASSIFICATION_TYPE><NORAD_CAT_ID>41179</NORAD_CAT_ID><ELEMENT_SET_NO>999</ELEMENT_SET_NO><REV_AT_EPOCH>42730</REV_AT_EPOCH><BSTAR>.21734E-3</BSTAR><MEAN_MOTION_DOT>.803E-5</MEAN_MOTION_DOT><MEAN_MOTION_DDOT>0</MEAN_MOTION_DDOT></tleParameters></data></segment></body></omm>
<omm id="CCSDS_OMM_VERS" version="2.0">
<header><CREATION_DATE/><ORIGINATOR/></header><body><segment><metadata><OBJECT_NAME>ORBCOMM FM119 [-]</OBJECT_NAME><OBJECT_ID>2015-081B</OBJECT_ID><CENTER_NAME>EARTH</CENTER_NAME><REF_FRAME>TEME</REF_FRAME><TIME_SYSTEM>UTC</TIME_SYSTEM><MEAN_ELEMENT_THEORY>SGP4</MEAN_ELEMENT_THEORY></metadata><data><meanElements><EPOCH>2024-01-05T13:00:31.093056</EPOCH><MEAN_MOTION>14.56172108</MEAN_MOTION><ECCENTRICITY>.0001598</ECCENTRICITY><INCLINATION>46.9994</INCLINATION><RA_OF_ASC_NODE>168.8986</RA_OF_ASC_NODE><ARG_OF_PERICENTER>177.8890</ARG_OF_PERICENTER><MEAN_ANOMALY>182.2001</MEAN_ANOMALY></meanElements><tleParameters><EPHEMERIS_TYPE>0</EPHEMERIS_TYPE><CLASSIFICATION_TYPE>U</CLASSIFICATION_TYPE><NORAD_CAT_ID>41180</NORAD_CAT_ID><ELEMENT_SET_NO>999</ELEMENT_SET_NO><REV_AT_EPOCH>42862</REV_AT_EPOCH><BSTAR>.18305E-3</BSTAR><MEAN_MOTION_DOT>.649E-5</MEAN_MOTION_DOT><MEAN_MOTION_DDOT>0</MEAN_MOTION_DDOT></tleParameters></data></segment></body></omm>
<omm id="CCSDS_OMM_VERS" version="2.0">
<header><CREATION_DATE/><ORIGINATOR/></header><body><segment><metadata><OBJECT_NAME>ORBCOMM FM105 [-]</OBJECT_NAME><OBJECT_ID>2015-081C</OBJECT_ID><CENTER_NAME>EARTH</CENTER_NAME><REF_FRAME>TEME</REF_FRAME><TIME_SYSTEM>UTC</TIME_SYSTEM><MEAN_ELEMENT_THEORY>SGP4</MEAN_ELEMENT_THEORY></metadata><data><meanElements><EPOCH>2024-01-05T10:19:42.468096</EPOCH><MEAN_MOTION>14.44168790</MEAN_MOTION><ECCENTRICITY>.0001356</ECCENTRICITY><INCLINATION>47.0015</INCLINATION><RA_OF_ASC_NODE>124.9003</RA_OF_ASC_NODE><ARG_OF_PERICENTER>135.2899</ARG_OF_PERICENTER><MEAN_ANOMALY>224.8090</MEAN_ANOMALY></meanElements><tleParameters><EPHEMERIS_TYPE>0</EPHEMERIS_TYPE><CLASSIFICATION_TYPE>U</CLASSIFICATION_TYPE><NORAD_CAT_ID>41181</NORAD_CAT_ID><ELEMENT_SET_NO>999</ELEMENT_SET_NO><REV_AT_EPOCH>42429</REV_AT_EPOCH><BSTAR>.15165E-3</BSTAR><MEAN_MOTION_DOT>.367E-5</MEAN_MOTION_DOT><MEAN_MOTION_DDOT>0</MEAN_MOTION_DDOT></tleParameters></data></segment></body></omm>
<omm id="CCSDS_OMM_VERS" version="2.0">
<header><CREATION_DATE/><ORIGINATOR/></header><body><segment><metadata><OBJECT_NAME>ORBCOMM FM110 [+]</OBJECT_NAME><OBJECT_ID>2015-081D</OBJECT_ID><CENTER_NAME>EARTH</CENTER_NAME><REF_FRAME>TEME</REF_FRAME><TIME_SYSTEM>UTC</TIME_SYSTEM><MEAN_ELEMENT_THEORY>SGP4</MEAN_ELEMENT_THEORY></metadata><data><meanElements><EPOCH>2024-01-05T01:40:59.350368</EPOCH><MEAN_MOTION>14.56172909</MEAN_MOTION><ECCENTRICITY>.0001915</ECCENTRICITY><INCLINATION>47.0016</INCLINATION><RA_OF_ASC_NODE>261.3462</RA_OF_ASC_NODE><ARG_OF_PERICENTER>270.0592</ARG_OF_PERICENTER><MEAN_ANOMALY>90.0073</MEAN_ANOMALY></meanElements><tleParameters><EPHEMERIS_TYPE>0</EPHEMERIS_TYPE><CLASSIFICATION_TYPE>U</CLASSIFICATION_TYPE><NORAD_CAT_ID>41182</NORAD_CAT_ID><ELEMENT_SET_NO>999</ELEMENT_SET_NO><REV_AT_EPOCH>42717</REV_AT_EPOCH><BSTAR>.22626E-3</BSTAR><MEAN_MOTION_DOT>.842E-5</MEAN_MOTION_DOT><MEAN_MOTION_DDOT>0</MEAN_MOTION_DDOT></tleParameters></data></segment></body></omm>
<omm id="CCSDS_OMM_VERS" version="2.0">
<header><CREATION_DATE/><ORIGINATOR/></header><body><segment><metadata><OBJECT_NAME>ORBCOMM FM118 [+]</OBJECT_NAME><OBJECT_ID>2015-081E</OBJECT_ID><CENTER_NAME>EARTH</CENTER_NAME><REF_FRAME>TEME</REF_FRAME><TIME_SYSTEM>UTC</TIME_SYSTEM><MEAN_ELEMENT_THEORY>SGP4</MEAN_ELEMENT_THEORY></metadata><data><meanElements><EPOCH>2024-01-05T02:47:06.008928</EPOCH><MEAN_MOTION>14.56224752</MEAN_MOTION><ECCENTRICITY>.0002227</ECCENTRICITY><INCLINATION>47.0035</INCLINATION><RA_OF_ASC_NODE>261.4121</RA_OF_ASC_NODE><ARG_OF_PERICENTER>272.7756</ARG_OF_PERICENTER><MEAN_ANOMALY>87.2874</MEAN_ANOMALY></meanElements><tleParameters><EPHEMERIS_TYPE>0</EPHEMERIS_TYPE><CLASSIFICATION_TYPE>U</CLASSIFICATION_TYPE><NORAD_CAT_ID>41183</NORAD_CAT_ID><ELEMENT_SET_NO>999</ELEMENT_SET_NO><REV_AT_EPOCH>42728</REV_AT_EPOCH><BSTAR>.22657E-3</BSTAR><MEAN_MOTION_DOT>.844E-5</MEAN_MOTION_DOT><MEAN_MOTION_DDOT>0</MEAN_MOTION_DDOT></tleParameters></data></segment></body></omm>
<omm id="CCSDS_OMM_VERS" version="2.0">
<header><CREATION_DATE/><ORIGINATOR/></header><body><segment><metadata><OBJECT_NAME>ORBCOMM FM112 [+]</OBJECT_NAME><OBJECT_ID>2015-081F</OBJECT_ID><CENTER_NAME>EARTH</CENTER_NAME><REF_FRAME>TEME</REF_FRAME><TIME_SYSTEM>UTC</TIME_SYSTEM><MEAN_ELEMENT_THEORY>SGP4</MEAN_ELEMENT_THEORY></metadata><data><meanElements><EPOCH>2024-01-05T10:50:01.328928</EPOCH><MEAN_MOTION>14.56127693</MEAN_MOTION><ECCENTRICITY>.0001107</ECCENTRICITY><INCLINATION>46.9970</INCLINATION><RA_OF_ASC_NODE>168.5700</RA_OF_ASC_NODE><ARG_OF_PERICENTER>165.6325</ARG_OF_PERICENTER><MEAN_ANOMALY>194.4592</MEAN_ANOMALY></meanElements><tleParameters><EPHEMERIS_TYPE>0</EPHEMERIS_TYPE><CLASSIFICATION_TYPE>U</CLASSIFICATION_TYPE><NORAD_CAT_ID>41184</NORAD_CAT_ID><ELEMENT_SET_NO>999</ELEMENT_SET_NO><REV_AT_EPOCH>42855</REV_AT_EPOCH><BSTAR>.24428E-3</BSTAR><MEAN_MOTION_DOT>.921E-5</MEAN_MOTION_DOT><MEAN_MOTION_DDOT>0</MEAN_MOTION_DDOT></tleParameters></data></segment></body></omm>
<omm id="CCSDS_OMM_VERS" version="2.0">
<header><CREATION_DATE/><ORIGINATOR/></header><body><segment><metadata><OBJECT_NAME>ORBCOMM FM113 [+]</OBJECT_NAME><OBJECT_ID>2015-081G</OBJECT_ID><CENTER_NAME>EARTH</CENTER_NAME><REF_FRAME>TEME</REF_FRAME><TIME_SYSTEM>UTC</TIME_SYSTEM><MEAN_ELEMENT_THEORY>SGP4</MEAN_ELEMENT_THEORY></metadata><data><meanElements><EPOCH>2024-01-05T20:09:22.808448</EPOCH><MEAN_MOTION>14.56175076</MEAN_MOTION><ECCENTRICITY>.0001421</ECCENTRICITY><INCLINATION>46.9991</INCLINATION><RA_OF_ASC_NODE>166.9822</RA_OF_ASC_NODE><ARG_OF_PERICENTER>189.2287</ARG_OF_PERICENTER><MEAN_ANOMALY>170.8571</MEAN_ANOMALY></meanElements><tleParameters><EPHEMERIS_TYPE>0</EPHEMERIS_TYPE><CLASSIFICATION_TYPE>U</CLASSIFICATION_TYPE><NORAD_CAT_ID>41185</NORAD_CAT_ID><ELEMENT_SET_NO>999</ELEMENT_SET_NO><REV_AT_EPOCH>42866</REV_AT_EPOCH><BSTAR>.22348E-3</BSTAR><MEAN_MOTION_DOT>.829E-5</MEAN_MOTION_DOT><MEAN_MOTION_DDOT>0</MEAN_MOTION_DDOT></tleParameters></data></segment></body></omm>

</ndm>
