ORBCOMM FM103 [+]       
1 40091U 14040F   24005.33331797  .00000737  00000+0  20278-3 0  9998
2 40091  47.0076 351.3660 0002231 350.1347   9.9494 14.56183808486978
ORBCOMM FM114 [+]       
1 41179U 15081A   24005.09322770  .00000803  00000+0  21734-3 0  9998
2 41179  47.0027 261.8211 0001438  63.7945 296.3088 14.56220640427307
ORBCOMM FM119 [-]       
1 41180U 15081B   24005.54202654  .00000649  00000+0  18305-3 0  9996
2 41180  46.9994 168.8986 0001598 177.8890 182.2001 14.56172108428627
ORBCOMM FM105 [-]       
1 41181U 15081C   24005.43035264  .00000367  00000+0  15165-3 0  9994
2 41181  47.0015 124.9003 0001356 135.2899 224.8090 14.44168790424295
ORBCOMM FM110 [+]       
1 41182U 15081D   24005.07013137  .00000842  00000+0  22626-3 0  9998
2 41182  47.0016 261.3462 0001915 270.0592  90.0073 14.56172909427175
ORBCOMM FM118 [+]       
1 41183U 15081E   24005.11604177  .00000844  00000+0  22657-3 0  9990
2 41183  47.0035 261.4121 0002227 272.7756  87.2874 14.56224752427281
ORBCOMM FM112 [+]       
1 41184U 15081F   24005.45140427  .00000921  00000+0  24428-3 0  9995
2 41184  46.9970 168.5700 0001107 165.6325 194.4592 14.56127693428551
ORBCOMM FM113 [+]       
1 41185U 15081G   24005.83984732  .00000829  00000+0  22348-3 0  9999
2 41185  46.9991 166.9822 0001421 189.2287 170.8571 14.56175076428665
